[{"OBJECT_NAME":"STARLINK-30130","OBJECT_ID":"2023-067K","EPOCH":"2026-03-08T23:28:59.065824","MEAN_MOTION":15.26744788,"ECCENTRICITY":0.00021899,"INCLINATION":43.0019,"RA_OF_ASC_NODE":274.8532,"ARG_OF_PERICENTER":263.0588,"MEAN_ANOMALY":97.0015,"EPHEMERIS_TYPE":0,"CLASSIFICATION_TYPE":"U","NORAD_CAT_ID":56697,"ELEMENT_SET_NO":999,"REV_AT_EPOCH":15533,"BSTAR":4.57425e-7,"MEAN_MOTION_DOT":-2.48e-6,"MEAN_MOTION_DDOT":0},{"OBJECT_NAME":"COSMOS 1758","OBJECT_ID":"1986-046A","EPOCH":"2026-03-09T22:23:33.220896","MEAN_MOTION":15.25706639,"ECCENTRICITY":0.00131526,"INCLINATION":82.4607,"RA_OF_ASC_NODE":143.3203,"ARG_OF_PERICENTER":337.3781,"MEAN_ANOMALY":22.6875,"EPHEMERIS_TYPE":0,"CLASSIFICATION_TYPE":"U","NORAD_CAT_ID":16791,"ELEMENT_SET_NO":999,"REV_AT_EPOCH":16610,"BSTAR":0.00027304427,"MEAN_MOTION_DOT":7.006e-5,"MEAN_MOTION_DDOT":0}]
